COSMOS 2550             
1 48865U 21056A   25317.96949389  .00005803  00000+0  18186-3 0  9992
2 48865  67.1442  31.0117 0008371 269.1562  90.8634 15.33867800245710
CZ-2C R/B               
1 52794U 22058K   25317.36200595  .00049171  00000+0  93146-3 0  9999
2 52794  50.1897 193.1411 0048784  76.5712 284.0686 15.46504803192088
GSLV R/B                
1 54149U 22138AN  25317.22379794  .00008425  00000+0  74771-3 0  9997
2 54149  87.3846 205.3525 0020080 209.0604 150.9511 14.95905114166514
XRISM                   
1 57800U 23137A   25317.28891507  .00014424  00000+0  86132-3 0  9991
2 57800  31.0031 315.6331 0008067 305.8202  54.1686 15.09905789120177
ACS3                    
1 59588U 24077B   25317.84698626  .00050957  00000+0  45267-1 0  9992
2 59588  97.3109 279.8698 0057101  24.4634 335.9217 13.83673206 78141
